NORAD_CAT_ID,OBJECT_NAME,OBJECT_TYPE,EPOCH,MEAN_MOTION,ECCENTRICITY,INCLINATION,RA_OF_ASC_NODE,ARG_OF_PERICENTER,MEAN_ANOMALY,BSTAR,MEAN_MOTION_DOT,MEAN_MOTION_DDOT,TLE_LINE0,TLE_LINE1,TLE_LINE2,SEMIMAJOR_AXIS,PERIOD,APOGEE,PERIGEE,DECAYED
53887.0,STARLINK-5029,PAYLOAD,2024-07-24 02:48:05,15.08831065,0.0001467,53.2176,108.8866,96.3112,263.8047,1.5412e-05,-4.3e-07,0.0,0 STARLINK-5029,1 53887U 22119B   24206.11672992 -.00000043  00000-0  15412-4 0  9992,2 53887  53.2176 108.8866 0001467  96.3112 263.8047 15.08831065101654,6917.908,95.438,540.788,538.758,0.0
53887.0,STARLINK-5029,PAYLOAD,2024-07-24 23:28:05,15.08849408,0.0001389,53.2174,105.0216,84.5838,275.5313,5.4751e-05,5.84e-06,0.0,0 STARLINK-5029,1 53887U 22119B   24206.97783837  .00000584  00000-0  54751-4 0  9995,2 53887  53.2174 105.0216 0001389  84.5838 275.5313 15.08849408101787,6917.852,95.437,540.678,538.756,0.0
53887.0,STARLINK-5029,PAYLOAD,2024-07-25 21:43:29,15.08831749,0.0001333,53.2174,100.8577,97.8597,262.2546,0.00014722,2.055e-05,0.0,0 STARLINK-5029,1 53887U 22119B   24207.90520776  .00002055  00000-0  14722-3 0  9998,2 53887  53.2174 100.8577 0001333  97.8597 262.2546 15.08831749102341,6917.906,95.438,540.693,538.848,0.0
53887.0,STARLINK-5029,PAYLOAD,2024-07-26 02:29:38,15.08842846,0.000125,53.2169,99.9638,107.0799,253.033,9.0669e-05,1.156e-05,0.0,0 STARLINK-5029,1 53887U 22119B   24208.10392171  .00001156  00000-0  90669-4 0  9993,2 53887  53.2169  99.9638 0001250 107.0799 253.0330 15.08842846101952,6917.872,95.437,540.601,538.872,0.0
53887.0,STARLINK-5029,PAYLOAD,2024-07-26 10:26:34,15.08844359,0.0001431,53.218,98.4772,99.775,260.3403,0.00010246,1.343e-05,0.0,0 STARLINK-5029,1 53887U 22119B   24208.43512068  .00001343  00000-0  10246-3 0  9998,2 53887  53.2180  98.4772 0001431  99.7750 260.3403 15.08844359102429,6917.867,95.437,540.722,538.742,0.0
53887.0,STARLINK-5029,PAYLOAD,2024-07-27 21:25:02,15.0887405,0.0001609,53.2186,91.9342,93.3011,266.8165,-0.00053392,-8.783e-05,0.0,0 STARLINK-5029,1 53887U 22119B   24209.89239087 -.00008783  00000-0 -53392-3 0  9992,2 53887  53.2186  91.9342 0001609  93.3011 266.8165 15.08874050102644,6917.776,95.435,540.754,538.528,0.0
53887.0,STARLINK-5029,PAYLOAD,2024-07-27 23:00:27,15.08836086,0.0001238,53.2168,91.6386,91.7264,268.387,-2.4314e-05,-6.75e-06,0.0,0 STARLINK-5029,1 53887U 22119B   24209.95864723 -.00000675  00000-0 -24314-4 0  9995,2 53887  53.2168  91.6386 0001238  91.7264 268.3870 15.08836086102231,6917.892,95.438,540.614,538.901,0.0
53887.0,STARLINK-5029,PAYLOAD,2024-07-28 22:51:13,15.08842581,0.0001359,53.2166,87.1795,85.7665,274.3482,2.2963e-05,7.8e-07,0.0,0 STARLINK-5029,1 53887U 22119B   24210.95224443  .00000078  00000-0  22963-4 0  9999,2 53887  53.2166  87.1795 0001359  85.7665 274.3482 15.08842581102801,6917.872,95.437,540.678,538.797,0.0
53887.0,STARLINK-5029,PAYLOAD,2024-07-29 08:23:32,15.08832489,0.0001649,53.2179,85.3984,100.9189,259.1988,0.00014071,1.952e-05,0.0,0 STARLINK-5029,1 53887U 22119B   24211.34968579  .00001952  00000-0  14071-3 0  9990,2 53887  53.2179  85.3984 0001649 100.9189 259.1988 15.08832489102862,6917.903,95.438,540.909,538.628,0.0
53887.0,STARLINK-5029,PAYLOAD,2024-07-29 22:42:01,15.08835273,0.0001631,53.2178,82.7223,103.959,256.1584,0.00014616,2.039e-05,0.0,0 STARLINK-5029,1 53887U 22119B   24211.94584760  .00002039  00000-0  14616-3 0  9994,2 53887  53.2178  82.7223 0001631 103.9590 256.1584 15.08835273102951,6917.895,95.438,540.888,538.632,0.0
53887.0,STARLINK-5029,PAYLOAD,2024-07-30 08:14:20,15.088347,0.0001604,53.2174,80.9383,104.9907,255.1263,0.00011356,1.52e-05,0.0,0 STARLINK-5029,1 53887U 22119B   24212.34329046  .00001520  00000-0  11356-3 0  9995,2 53887  53.2174  80.9383 0001604 104.9907 255.1263 15.08834700102594,6917.897,95.438,540.871,538.652,0.0
53887.0,STARLINK-5029,PAYLOAD,2024-07-30 22:32:47,15.08846023,0.0001505,53.2167,78.2609,103.7609,256.3551,9.5584e-05,1.234e-05,0.0,0 STARLINK-5029,1 53887U 22119B   24212.93944408  .00001234  00000-0  95584-4 0  9993,2 53887  53.2167  78.2609 0001505 103.7609 256.3551 15.08846023103105,6917.862,95.437,540.768,538.686,0.0
53887.0,STARLINK-5029,PAYLOAD,2024-07-31 08:05:06,15.08847992,0.0001255,53.2159,76.4729,80.9403,279.1731,8.8567e-05,1.122e-05,0.0,0 STARLINK-5029,1 53887U 22119B   24213.33688180  .00001122  00000-0  88567-4 0  9999,2 53887  53.2159  76.4729 0001255  80.9403 279.1731 15.08847992103164,6917.856,95.437,540.589,538.853,0.0
53887.0,STARLINK-5029,PAYLOAD,2024-07-31 20:48:12,15.08832845,0.0001333,53.2152,74.0961,89.11,271.0045,-1.9999e-05,-6.06e-06,0.0,0 STARLINK-5029,1 53887U 22119B   24213.86681625 -.00000606  00000-0 -19999-4 0  9995,2 53887  53.2152  74.0961 0001333  89.1100 271.0045 15.08832845102823,6917.902,95.438,540.689,538.845,0.0
53887.0,STARLINK-5029,PAYLOAD,2024-07-31 22:23:35,15.08840463,0.0001212,53.2153,73.7988,99.6747,260.4382,4.4872e-05,4.26e-06,0.0,0 STARLINK-5029,1 53887U 22119B   24213.93304949  .00000426  00000-0  44872-4 0  9990,2 53887  53.2153  73.7988 0001212  99.6747 260.4382 15.08840463103257,6917.879,95.438,540.582,538.906,0.0
53887.0,STARLINK-5029,PAYLOAD,2024-08-01 07:55:54,15.08844686,0.0001347,53.2164,72.0122,82.0071,278.1074,2.056e-05,3.9e-07,0.0,0 STARLINK-5029,1 53887U 22119B   24214.33048809  .00000039  00000-0  20560-4 0  9993,2 53887  53.2164  72.0122 0001347  82.0071 278.1074 15.08844686103318,6917.866,95.437,540.663,538.799,0.0
53887.0,STARLINK-5029,PAYLOAD,2024-08-01 20:38:58,15.08852131,0.0001638,53.2174,69.633,78.7849,281.3327,0.00013669,1.889e-05,0.0,0 STARLINK-5029,1 53887U 22119B   24214.86040045  .00001889  00000-0  13669-3 0  9990,2 53887  53.2174  69.6330 0001638  78.7849 281.3327 15.08852131102972,6917.843,95.437,540.841,538.575,0.0
53887.0,STARLINK-5029,PAYLOAD,2024-08-02 07:46:40,15.08846756,0.0001262,53.2165,67.5509,90.7257,269.388,8.4322e-05,1.055e-05,0.0,0 STARLINK-5029,1 53887U 22119B   24215.32408253  .00001055  00000-0  84322-4 0  9991,2 53887  53.2165  67.5509 0001262  90.7257 269.3880 15.08846756103042,6917.86,95.437,540.598,538.852,0.0
53887.0,STARLINK-5029,PAYLOAD,2024-08-02 20:29:46,15.08836162,0.0001426,53.2163,65.1721,91.0135,269.102,5.1743e-05,5.36e-06,0.0,0 STARLINK-5029,1 53887U 22119B   24215.85401389  .00000536  00000-0  51743-4 0  9996,2 53887  53.2163  65.1721 0001426  91.0135 269.1020 15.08836162103124,6917.892,95.438,540.744,538.771,0.0
53887.0,STARLINK-5029,PAYLOAD,2024-08-03 07:37:28,15.08839999,0.0001485,53.2167,63.0906,93.6248,266.4914,7.913e-05,9.72e-06,0.0,0 STARLINK-5029,1 53887U 22119B   24216.31769204  .00000972  00000-0  79130-4 0  9995,2 53887  53.2167  63.0906 0001485  93.6248 266.4914 15.08839999103615,6917.88,95.438,540.773,538.718,0.0
53887.0,STARLINK-5029,PAYLOAD,2024-08-03 20:20:32,15.08853769,0.0001395,53.2168,60.7108,100.054,260.0609,0.00011877,1.603e-05,0.0,0 STARLINK-5029,1 53887U 22119B   24216.84760363  .00001603  00000-0  11877-3 0  9995,2 53887  53.2168  60.7108 0001395 100.0540 260.0609 15.08853769103276,6917.838,95.437,540.668,538.738,0.0
53887.0,STARLINK-5029,PAYLOAD,2024-08-04 13:49:48,15.0884079,0.0001355,53.216,57.4408,94.3687,265.746,0.00023005,3.375e-05,0.0,0 STARLINK-5029,1 53887U 22119B   24217.57625149  .00003375  00000-0  23005-3 0  9992,2 53887  53.2160  57.4408 0001355  94.3687 265.7460 15.08840790103803,6917.878,95.438,540.68,538.806,0.0
53887.0,STARLINK-5029,PAYLOAD,2024-08-04 20:11:20,15.08850667,0.0001341,53.2168,56.2521,93.9593,266.1553,0.00026269,3.896e-05,0.0,0 STARLINK-5029,1 53887U 22119B   24217.84120711  .00003896  00000-0  26269-3 0  9990,2 53887  53.2168  56.2521 0001341  93.9593 266.1553 15.08850667103420,6917.848,95.437,540.64,538.785,0.0
53887.0,STARLINK-5029,PAYLOAD,2024-08-05 05:43:39,15.08844705,0.0001372,53.216,54.4642,79.0649,281.0498,0.00014454,2.013e-05,0.0,0 STARLINK-5029,1 53887U 22119B   24218.23864866  .00002013  00000-0  14454-3 0  9993,2 53887  53.2160  54.4642 0001372  79.0649 281.0498 15.08844705103483,6917.866,95.437,540.68,538.782,0.0
53887.0,STARLINK-5029,PAYLOAD,2024-08-05 20:02:07,15.08844383,0.0001433,53.2166,51.7904,93.3805,266.7351,7.2879e-06,-1.72e-06,0.0,0 STARLINK-5029,1 53887U 22119B   24218.83480731 -.00000172  00000-0  72879-5 0  9996,2 53887  53.2166  51.7904 0001433  93.3805 266.7351 15.08844383103997,6917.867,95.437,540.723,538.741,0.0
53887.0,STARLINK-5029,PAYLOAD,2024-08-06 05:34:26,15.08837317,0.0001462,53.2168,50.0059,88.4446,271.6714,-3.6815e-06,-3.47e-06,0.0,0 STARLINK-5029,1 53887U 22119B   24219.23225066 -.00000347  00000-0 -36815-5 0  9994,2 53887  53.2168  50.0059 0001462  88.4446 271.6714 15.08837317103638,6917.889,95.438,540.765,538.742,0.0
53887.0,STARLINK-5029,PAYLOAD,2024-08-06 18:17:32,15.08831282,0.0001378,53.217,47.6244,81.9284,278.1864,-9.8384e-05,-1.853e-05,0.0,0 STARLINK-5029,1 53887U 22119B   24219.76217626 -.00001853  00000-0 -98384-4 0  9996,2 53887  53.2170  47.6244 0001378  81.9284 278.1864 15.08831282103715,6917.907,95.438,540.725,538.819,0.0
53887.0,STARLINK-5029,PAYLOAD,2024-08-07 11:46:46,15.08837551,0.0001069,53.2178,44.3583,112.3432,247.7673,0.00014929,2.089e-05,0.0,0 STARLINK-5029,1 53887U 22119B   24220.49081398  .00002089  00000-0  14929-3 0  9995,2 53887  53.2178  44.3583 0001069 112.3432 247.7673 15.08837551103821,6917.888,95.438,540.492,539.013,0.0
53887.0,STARLINK-5029,PAYLOAD,2024-08-07 19:43:41,15.08849108,0.0001243,53.2171,42.8708,92.8778,267.2357,0.00012208,1.656e-05,0.0,0 STARLINK-5029,1 53887U 22119B   24220.82201023  .00001656  00000-0  12208-3 0  9998,2 53887  53.2171  42.8708 0001243  92.8778 267.2357 15.08849108104294,6917.853,95.437,540.577,538.858,0.0
53887.0,STARLINK-5029,PAYLOAD,2024-08-08 11:37:33,15.08835009,0.0001254,53.2173,39.8977,89.6457,270.4679,0.00012599,1.718e-05,0.0,0 STARLINK-5029,1 53887U 22119B   24221.48442099  .00001718  00000-0  12599-3 0  9993,2 53887  53.2173  39.8977 0001254  89.6457 270.4679 15.08835009104399,6917.896,95.438,540.628,538.893,0.0
